{
  "type": "FeatureCollection",
  "features": [
    {
      "type": "Feature",
      "properties": {
        "norad_id": 29961,
        "name": "FENGYUN 1C DEB",
        "group": "fengyun-1c-debris",
        "lat": 42.833095248528345,
        "lon": -129.32941050678764,
        "alt_km": 821.0551848565956,
        "timestamp": "2025-12-17T13:48:37.827516+00:00",
        "meta_object_name": "FENGYUN 1C DEB",
        "meta_object_id": "1999-025KK",
        "meta_epoch": "2025-12-17T06:52:20.589024",
        "meta_mean_motion": 14.26219118,
        "meta_eccentricity": 0.0073974,
        "meta_inclination": 98.9484,
        "meta_ra_of_asc_node": 238.7748,
        "meta_arg_of_pericenter": 291.622,
        "meta_mean_anomaly": 67.7091,
        "meta_ephemeris_type": 0,
        "meta_classification_type": "U",
        "meta_norad_cat_id": 29961,
        "meta_element_set_no": 999,
        "meta_rev_at_epoch": 98374,
        "meta_bstar": 0.00016678396,
        "meta_mean_motion_dot": 3.64e-06,
        "meta_mean_motion_ddot": 0,
        "tle_line1": "1 29961U 99025KK  25351.28634941  .00000364  00000+0  16678-3 0  9998",
        "tle_line2": "2 29961  98.9484 238.7748 0073974 291.6220  67.7091 14.26219118983748"
      },
      "geometry": {
        "type": "Point",
        "coordinates": [
          -129.32941050678764,
          42.833095248528345
        ]
      }
    },
    {
      "type": "Feature",
      "properties": {
        "norad_id": 29962,
        "name": "FENGYUN 1C DEB",
        "group": "fengyun-1c-debris",
        "lat": -62.772914228267716,
        "lon": 162.14969474717427,
        "alt_km": 811.9318379805554,
        "timestamp": "2025-12-17T13:48:37.827526+00:00",
        "meta_object_name": "FENGYUN 1C DEB",
        "meta_object_id": "1999-025KL",
        "meta_epoch": "2025-12-17T07:36:19.402272",
        "meta_mean_motion": 14.0716049,
        "meta_eccentricity": 0.01099126,
        "meta_inclination": 98.7683,
        "meta_ra_of_asc_node": 359.3542,
        "meta_arg_of_pericenter": 208.2603,
        "meta_mean_anomaly": 166.0496,
        "meta_ephemeris_type": 0,
        "meta_classification_type": "U",
        "meta_norad_cat_id": 29962,
        "meta_element_set_no": 999,
        "meta_rev_at_epoch": 97062,
        "meta_bstar": 0.00027979856,
        "meta_mean_motion_dot": 4.52e-06,
        "meta_mean_motion_ddot": 0,
        "tle_line1": "1 29962U 99025KL  25351.31689123  .00000452  00000+0  27980-3 0  9991",
        "tle_line2": "2 29962  98.7683 359.3542 0109912 208.2603 166.0496 14.07160490970623"
      },
      "geometry": {
        "type": "Point",
        "coordinates": [
          162.14969474717427,
          -62.772914228267716
        ]
      }
    },
    {
      "type": "Feature",
      "properties": {
        "norad_id": 29963,
        "name": "FENGYUN 1C DEB",
        "group": "fengyun-1c-debris",
        "lat": 77.94496286792459,
        "lon": 103.59647040797198,
        "alt_km": 822.3602216187646,
        "timestamp": "2025-12-17T13:48:37.827536+00:00",
        "meta_object_name": "FENGYUN 1C DEB",
        "meta_object_id": "1999-025KM",
        "meta_epoch": "2025-12-16T15:46:12.366912",
        "meta_mean_motion": 14.29475084,
        "meta_eccentricity": 0.0051299,
        "meta_inclination": 98.9986,
        "meta_ra_of_asc_node": 234.7467,
        "meta_arg_of_pericenter": 290.8521,
        "meta_mean_anomaly": 123.8053,
        "meta_ephemeris_type": 0,
        "meta_classification_type": "U",
        "meta_norad_cat_id": 29963,
        "meta_element_set_no": 999,
        "meta_rev_at_epoch": 98199,
        "meta_bstar": 0.00055859421,
        "meta_mean_motion_dot": 1.399e-05,
        "meta_mean_motion_ddot": 0,
        "tle_line1": "1 29963U 99025KM  25350.65708758  .00001399  00000+0  55859-3 0  9991",
        "tle_line2": "2 29963  98.9986 234.7467 0051299 290.8521 123.8053 14.29475084981998"
      },
      "geometry": {
        "type": "Point",
        "coordinates": [
          103.59647040797198,
          77.94496286792459
        ]
      }
    },
    {
      "type": "Feature",
      "properties": {
        "norad_id": 29964,
        "name": "FENGYUN 1C DEB",
        "group": "fengyun-1c-debris",
        "lat": -65.23961301213353,
        "lon": -4.921535691779235,
        "alt_km": 797.7011108847264,
        "timestamp": "2025-12-17T13:48:37.827546+00:00",
        "meta_object_name": "FENGYUN 1C DEB",
        "meta_object_id": "1999-025KN",
        "meta_epoch": "2025-12-17T02:21:33.258240",
        "meta_mean_motion": 14.02753664,
        "meta_eccentricity": 0.01307431,
        "meta_inclination": 98.3709,
        "meta_ra_of_asc_node": 193.2564,
        "meta_arg_of_pericenter": 257.1328,
        "meta_mean_anomaly": 101.5207,
        "meta_ephemeris_type": 0,
        "meta_classification_type": "U",
        "meta_norad_cat_id": 29964,
        "meta_element_set_no": 999,
        "meta_rev_at_epoch": 96378,
        "meta_bstar": 0.00066886629,
        "meta_mean_motion_dot": 1.075e-05,
        "meta_mean_motion_ddot": 0,
        "tle_line1": "1 29964U 99025KN  25351.09830160  .00001075  00000+0  66887-3 0  9998",
        "tle_line2": "2 29964  98.3709 193.2564 0130743 257.1328 101.5207 14.02753664963781"
      },
      "geometry": {
        "type": "Point",
        "coordinates": [
          -4.921535691779235,
          -65.23961301213353
        ]
      }
    },
    {
      "type": "Feature",
      "properties": {
        "norad_id": 29965,
        "name": "FENGYUN 1C DEB",
        "group": "fengyun-1c-debris",
        "lat": -55.16010838298057,
        "lon": 152.9712839027627,
        "alt_km": 1021.7892391138621,
        "timestamp": "2025-12-17T13:48:37.827555+00:00",
        "meta_object_name": "FENGYUN 1C DEB",
        "meta_object_id": "1999-025KP",
        "meta_epoch": "2025-12-16T23:10:48.188928",
        "meta_mean_motion": 13.95777762,
        "meta_eccentricity": 0.01459686,
        "meta_inclination": 98.9626,
        "meta_ra_of_asc_node": 345.4826,
        "meta_arg_of_pericenter": 56.4634,
        "meta_mean_anomaly": 358.2438,
        "meta_ephemeris_type": 0,
        "meta_classification_type": "U",
        "meta_norad_cat_id": 29965,
        "meta_element_set_no": 999,
        "meta_rev_at_epoch": 96335,
        "meta_bstar": 4.7064242e-05,
        "meta_mean_motion_dot": 2.8e-07,
        "meta_mean_motion_ddot": 0,
        "tle_line1": "1 29965U 99025KP  25350.96583552  .00000028  00000+0  47064-4 0  9998",
        "tle_line2": "2 29965  98.9626 345.4826 0145968  56.4634 358.2438 13.95777762963359"
      },
      "geometry": {
        "type": "Point",
        "coordinates": [
          152.9712839027627,
          -55.16010838298057
        ]
      }
    },
    {
      "type": "Feature",
      "properties": {
        "norad_id": 29966,
        "name": "FENGYUN 1C DEB",
        "group": "fengyun-1c-debris",
        "lat": -60.04316565753718,
        "lon": 2.060880485162995,
        "alt_km": 813.0622203417406,
        "timestamp": "2025-12-17T13:48:37.827566+00:00",
        "meta_object_name": "FENGYUN 1C DEB",
        "meta_object_id": "1999-025KQ",
        "meta_epoch": "2025-12-17T07:37:33.186144",
        "meta_mean_motion": 14.25760813,
        "meta_eccentricity": 0.00394774,
        "meta_inclination": 99.4912,
        "meta_ra_of_asc_node": 198.6558,
        "meta_arg_of_pericenter": 332.4406,
        "meta_mean_anomaly": 27.4678,
        "meta_ephemeris_type": 0,
        "meta_classification_type": "U",
        "meta_norad_cat_id": 29966,
        "meta_element_set_no": 999,
        "meta_rev_at_epoch": 98108,
        "meta_bstar": 0.0003344284,
        "meta_mean_motion_dot": 7.5e-06,
        "meta_mean_motion_ddot": 0,
        "tle_line1": "1 29966U 99025KQ  25351.31774521  .00000750  00000+0  33443-3 0  9994",
        "tle_line2": "2 29966  99.4912 198.6558 0039477 332.4406  27.4678 14.25760813981089"
      },
      "geometry": {
        "type": "Point",
        "coordinates": [
          2.060880485162995,
          -60.04316565753718
        ]
      }
    },
    {
      "type": "Feature",
      "properties": {
        "norad_id": 29967,
        "name": "FENGYUN 1C DEB",
        "group": "fengyun-1c-debris",
        "lat": 19.3608981782081,
        "lon": 65.07435321236005,
        "alt_km": 823.5048541860651,
        "timestamp": "2025-12-17T13:48:37.827575+00:00",
        "meta_object_name": "FENGYUN 1C DEB",
        "meta_object_id": "1999-025KR",
        "meta_epoch": "2025-12-15T04:30:03.298752",
        "meta_mean_motion": 14.23610689,
        "meta_eccentricity": 0.00760822,
        "meta_inclination": 98.8656,
        "meta_ra_of_asc_node": 65.8123,
        "meta_arg_of_pericenter": 285.3371,
        "meta_mean_anomaly": 102.3694,
        "meta_ephemeris_type": 0,
        "meta_classification_type": "U",
        "meta_norad_cat_id": 29967,
        "meta_element_set_no": 999,
        "meta_rev_at_epoch": 97257,
        "meta_bstar": 0.0011499099,
        "meta_mean_motion_dot": 2.654e-05,
        "meta_mean_motion_ddot": 0,
        "tle_line1": "1 29967U 99025KR  25349.18753818  .00002654  00000+0  11499-2 0  9994",
        "tle_line2": "2 29967  98.8656  65.8123 0076082 285.3371 102.3694 14.23610689972579"
      },
      "geometry": {
        "type": "Point",
        "coordinates": [
          65.07435321236005,
          19.3608981782081
        ]
      }
    }
  ]
}